[{"OBJECT_NAME":"STARLINK-30291","OBJECT_ID":"2023-141S","EPOCH":"2026-03-09T20:28:29.974080","MEAN_MOTION":15.30188197,"ECCENTRICITY":0.00011986,"INCLINATION":53.1592,"RA_OF_ASC_NODE":283.3202,"ARG_OF_PERICENTER":74.2697,"MEAN_ANOMALY":285.8436,"EPHEMERIS_TYPE":0,"CLASSIFICATION_TYPE":"U","NORAD_CAT_ID":57856,"ELEMENT_SET_NO":999,"REV_AT_EPOCH":14035,"BSTAR":1.7704091e-5,"MEAN_MOTION_DOT":1.65e-6,"MEAN_MOTION_DDOT":0},{"OBJECT_NAME":"AETHER-2","OBJECT_ID":"2023-174AV","EPOCH":"2026-03-09T17:13:49.792224","MEAN_MOTION":15.33264165,"ECCENTRICITY":0.00086301,"INCLINATION":97.3931,"RA_OF_ASC_NODE":151.9008,"ARG_OF_PERICENTER":139.5247,"MEAN_ANOMALY":220.6639,"EPHEMERIS_TYPE":0,"CLASSIFICATION_TYPE":"U","NORAD_CAT_ID":58299,"ELEMENT_SET_NO":999,"REV_AT_EPOCH":12998,"BSTAR":0.00026165949,"MEAN_MOTION_DOT":8.341e-5,"MEAN_MOTION_DDOT":0}]
