STARLINK-30291          
1 57856U 23141S   26068.85312469  .00000165  00000+0  17704-4 0  9996
2 57856  53.1592 283.3202 0001199  74.2697 285.8436 15.30188197140355
AETHER-2                
1 58299U 23174AV  26068.71793741  .00008341  00000+0  26166-3 0  9990
2 58299  97.3931 151.9008 0008630 139.5247 220.6639 15.33264165129982
